{
  "type": "FeatureCollection",
  "features": [
    {
      "type": "Feature",
      "properties": {
        "norad_id": 37238,
        "name": "INTELSAT 17 (IS-17)",
        "group": "intelsat",
        "lat": 0.025666240421593513,
        "lon": 38.8714083699756,
        "alt_km": 35793.73028288103,
        "timestamp": "2025-12-09T16:56:36.248048+00:00",
        "meta_object_name": "INTELSAT 17 (IS-17)",
        "meta_object_id": "2010-065B",
        "meta_epoch": "2025-12-09T10:27:48.054240",
        "meta_mean_motion": 1.00272328,
        "meta_eccentricity": 0.0002448,
        "meta_inclination": 0.0152,
        "meta_ra_of_asc_node": 284.7396,
        "meta_arg_of_pericenter": 335.1997,
        "meta_mean_anomaly": 41.4494,
        "meta_ephemeris_type": 0,
        "meta_classification_type": "U",
        "meta_norad_cat_id": 37238,
        "meta_element_set_no": 999,
        "meta_rev_at_epoch": 5134,
        "meta_bstar": 0,
        "meta_mean_motion_dot": 0,
        "meta_mean_motion_ddot": 0,
        "tle_line1": "1 37238U 10065B   25343.43597285  .00000000  00000+0  00000+0 0  9993",
        "tle_line2": "2 37238   0.0152 284.7396 0002448 335.1997  41.4494  1.00272328 51341"
      },
      "geometry": {
        "type": "Point",
        "coordinates": [
          38.8714083699756,
          0.025666240421593513
        ]
      }
    },
    {
      "type": "Feature",
      "properties": {
        "norad_id": 37392,
        "name": "INTELSAT 28 (IS-28)",
        "group": "intelsat",
        "lat": -0.7897201274358571,
        "lon": -58.83606502699733,
        "alt_km": 35772.77079746779,
        "timestamp": "2025-12-09T16:56:36.248060+00:00",
        "meta_object_name": "INTELSAT 28 (IS-28)",
        "meta_object_id": "2011-016A",
        "meta_epoch": "2025-12-09T09:59:50.732160",
        "meta_mean_motion": 1.00272298,
        "meta_eccentricity": 0.0003983,
        "meta_inclination": 1.3162,
        "meta_ra_of_asc_node": 85.0937,
        "meta_arg_of_pericenter": 178.1199,
        "meta_mean_anomaly": 293.4551,
        "meta_ephemeris_type": 0,
        "meta_classification_type": "U",
        "meta_norad_cat_id": 37392,
        "meta_element_set_no": 999,
        "meta_rev_at_epoch": 5138,
        "meta_bstar": 0,
        "meta_mean_motion_dot": -2.23e-06,
        "meta_mean_motion_ddot": 0,
        "tle_line1": "1 37392U 11016A   25343.41655940 -.00000223  00000+0  00000+0 0  9990",
        "tle_line2": "2 37392   1.3162  85.0937 0003983 178.1199 293.4551  1.00272298 51387"
      },
      "geometry": {
        "type": "Point",
        "coordinates": [
          -58.83606502699733,
          -0.7897201274358571
        ]
      }
    },
    {
      "type": "Feature",
      "properties": {
        "norad_id": 37834,
        "name": "INTELSAT 18 (IS-18)",
        "group": "intelsat",
        "lat": 0.006593875666002587,
        "lon": 152.81451576498847,
        "alt_km": 35789.49937441574,
        "timestamp": "2025-12-09T16:56:36.248072+00:00",
        "meta_object_name": "INTELSAT 18 (IS-18)",
        "meta_object_id": "2011-056A",
        "meta_epoch": "2025-12-09T11:00:14.945184",
        "meta_mean_motion": 1.00271428,
        "meta_eccentricity": 0.0002056,
        "meta_inclination": 0.0179,
        "meta_ra_of_asc_node": 343.2301,
        "meta_arg_of_pericenter": 282.1616,
        "meta_mean_anomaly": 158.1156,
        "meta_ephemeris_type": 0,
        "meta_classification_type": "U",
        "meta_norad_cat_id": 37834,
        "meta_element_set_no": 999,
        "meta_rev_at_epoch": 5190,
        "meta_bstar": 0,
        "meta_mean_motion_dot": 5.5e-07,
        "meta_mean_motion_ddot": 0,
        "tle_line1": "1 37834U 11056A   25343.45850631  .00000055  00000+0  00000+0 0  9995",
        "tle_line2": "2 37834   0.0179 343.2301 0002056 282.1616 158.1156  1.00271428 51906"
      },
      "geometry": {
        "type": "Point",
        "coordinates": [
          152.81451576498847,
          0.006593875666002587
        ]
      }
    },
    {
      "type": "Feature",
      "properties": {
        "norad_id": 38098,
        "name": "INTELSAT 22 (IS-22)",
        "group": "intelsat",
        "lat": 0.03490370334588044,
        "lon": 44.973821328389285,
        "alt_km": 35790.42325528016,
        "timestamp": "2025-12-09T16:56:36.248085+00:00",
        "meta_object_name": "INTELSAT 22 (IS-22)",
        "meta_object_id": "2012-011A",
        "meta_epoch": "2025-12-09T10:29:32.885952",
        "meta_mean_motion": 1.00274412,
        "meta_eccentricity": 0.0001554,
        "meta_inclination": 0.0179,
        "meta_ra_of_asc_node": 312.5173,
        "meta_arg_of_pericenter": 311.8993,
        "meta_mean_anomaly": 43.5177,
        "meta_ephemeris_type": 0,
        "meta_classification_type": "U",
        "meta_norad_cat_id": 38098,
        "meta_element_set_no": 999,
        "meta_rev_at_epoch": 528,
        "meta_bstar": 0,
        "meta_mean_motion_dot": -5.7e-07,
        "meta_mean_motion_ddot": 0,
        "tle_line1": "1 38098U 12011A   25343.43718618 -.00000057  00000+0  00000+0 0  9999",
        "tle_line2": "2 38098   0.0179 312.5173 0001554 311.8993  43.5177  1.00274412  5281"
      },
      "geometry": {
        "type": "Point",
        "coordinates": [
          44.973821328389285,
          0.03490370334588044
        ]
      }
    },
    {
      "type": "Feature",
      "properties": {
        "norad_id": 38356,
        "name": "INTELSAT 19 (IS-19)",
        "group": "intelsat",
        "lat": 0.011519971935204048,
        "lon": 138.81281776761261,
        "alt_km": 35795.20532964348,
        "timestamp": "2025-12-09T16:56:36.248096+00:00",
        "meta_object_name": "INTELSAT 19 (IS-19)",
        "meta_object_id": "2012-030A",
        "meta_epoch": "2025-12-09T12:27:23.105088",
        "meta_mean_motion": 1.00271719,
        "meta_eccentricity": 0.0003533,
        "meta_inclination": 0.0088,
        "meta_ra_of_asc_node": 342.2441,
        "meta_arg_of_pericenter": 284.1388,
        "meta_mean_anomaly": 164.9765,
        "meta_ephemeris_type": 0,
        "meta_classification_type": "U",
        "meta_norad_cat_id": 38356,
        "meta_element_set_no": 999,
        "meta_rev_at_epoch": 4854,
        "meta_bstar": 0,
        "meta_mean_motion_dot": -5.4e-07,
        "meta_mean_motion_ddot": 0,
        "tle_line1": "1 38356U 12030A   25343.51901742 -.00000054  00000+0  00000+0 0  9995",
        "tle_line2": "2 38356   0.0088 342.2441 0003533 284.1388 164.9765  1.00271719 48548"
      },
      "geometry": {
        "type": "Point",
        "coordinates": [
          138.81281776761261,
          0.011519971935204048
        ]
      }
    },
    {
      "type": "Feature",
      "properties": {
        "norad_id": 38740,
        "name": "INTELSAT 20 (IS-20)",
        "group": "intelsat",
        "lat": 0.0012753729056217177,
        "lon": 41.33029916891748,
        "alt_km": 35796.1241377974,
        "timestamp": "2025-12-09T16:56:36.248109+00:00",
        "meta_object_name": "INTELSAT 20 (IS-20)",
        "meta_object_id": "2012-043A",
        "meta_epoch": "2025-12-09T10:28:32.982240",
        "meta_mean_motion": 1.00270091,
        "meta_eccentricity": 0.0002883,
        "meta_inclination": 0.0032,
        "meta_ra_of_asc_node": 78.3877,
        "meta_arg_of_pericenter": 105.0691,
        "meta_mean_anomaly": 120.6193,
        "meta_ephemeris_type": 0,
        "meta_classification_type": "U",
        "meta_norad_cat_id": 38740,
        "meta_element_set_no": 999,
        "meta_rev_at_epoch": 4884,
        "meta_bstar": 0,
        "meta_mean_motion_dot": -2.2e-07,
        "meta_mean_motion_ddot": 0,
        "tle_line1": "1 38740U 12043A   25343.43649285 -.00000022  00000+0  00000+0 0  9993",
        "tle_line2": "2 38740   0.0032  78.3877 0002883 105.0691 120.6193  1.00270091 48848"
      },
      "geometry": {
        "type": "Point",
        "coordinates": [
          41.33029916891748,
          0.0012753729056217177
        ]
      }
    },
    {
      "type": "Feature",
      "properties": {
        "norad_id": 38749,
        "name": "INTELSAT 21 (IS-21)",
        "group": "intelsat",
        "lat": -0.024807369938366627,
        "lon": -85.14996119053048,
        "alt_km": 35777.86324238255,
        "timestamp": "2025-12-09T16:56:36.248121+00:00",
        "meta_object_name": "INTELSAT 21 (IS-21)",
        "meta_object_id": "2012-045A",
        "meta_epoch": "2025-12-09T09:52:21.447840",
        "meta_mean_motion": 1.0027042,
        "meta_eccentricity": 0.0002162,
        "meta_inclination": 0.0119,
        "meta_ra_of_asc_node": 33.9512,
        "meta_arg_of_pericenter": 221.5533,
        "meta_mean_anomaly": 272.99,
        "meta_ephemeris_type": 0,
        "meta_classification_type": "U",
        "meta_norad_cat_id": 38749,
        "meta_element_set_no": 999,
        "meta_rev_at_epoch": 4862,
        "meta_bstar": 0,
        "meta_mean_motion_dot": -2.83e-06,
        "meta_mean_motion_ddot": 0,
        "tle_line1": "1 38749U 12045A   25343.41135935 -.00000283  00000+0  00000+0 0  9993",
        "tle_line2": "2 38749   0.0119  33.9512 0002162 221.5533 272.9900  1.00270420 48624"
      },
      "geometry": {
        "type": "Point",
        "coordinates": [
          -85.14996119053048,
          -0.024807369938366627
        ]
      }
    }
  ]
}